NORAD_CAT_ID,OBJECT_NAME,OBJECT_TYPE,EPOCH,MEAN_MOTION,ECCENTRICITY,INCLINATION,RA_OF_ASC_NODE,ARG_OF_PERICENTER,MEAN_ANOMALY,BSTAR,MEAN_MOTION_DOT,MEAN_MOTION_DDOT,TLE_LINE0,TLE_LINE1,TLE_LINE2,SEMIMAJOR_AXIS,PERIOD,APOGEE,PERIGEE,DECAYED
54054.0,STARLINK-5163,PAYLOAD,2023-04-17 05:49:56,15.08846155,0.0001215,53.217,51.3087,97.3273,262.7857,0.00020107,2.914e-05,0.0,0 STARLINK-5163,1 54054U 22136D   23107.24301505  .00002914  00000-0  20107-3 0  9994,2 54054  53.2170  51.3087 0001215  97.3273 262.7857 15.08846155 27685,6917.862,95.437,540.567,538.886,0.0
54054.0,STARLINK-5163,PAYLOAD,2023-04-18 05:40:43,15.08848655,0.000121,53.2187,46.8477,99.613,260.4999,0.00022806,3.344e-05,0.0,0 STARLINK-5163,1 54054U 22136D   23108.23661559  .00003344  00000-0  22806-3 0  9998,2 54054  53.2187  46.8477 0001210  99.6130 260.4999 15.08848655 27350,6917.854,95.437,540.556,538.882,0.0
54054.0,STARLINK-5163,PAYLOAD,2023-04-19 05:31:31,15.08844151,0.0001095,53.2188,42.3891,85.0896,275.0221,0.00017687,2.528e-05,0.0,0 STARLINK-5163,1 54054U 22136D   23109.23022062  .00002528  00000-0  17687-3 0  9993,2 54054  53.2188  42.3891 0001095  85.0896 275.0221 15.08844151 27987,6917.868,95.437,540.49,538.975,0.0
54054.0,STARLINK-5163,PAYLOAD,2023-04-20 05:22:17,15.08852301,9.16e-05,53.2183,37.9299,98.6182,261.4914,0.00033722,5.085e-05,0.0,0 STARLINK-5163,1 54054U 22136D   23110.22381917  .00005085  00000-0  33722-3 0  9990,2 54054  53.2183  37.9299 0000916  98.6182 261.4914 15.08852301 27651,6917.843,95.437,540.341,539.074,0.0
54054.0,STARLINK-5163,PAYLOAD,2023-04-21 03:37:42,15.08836025,0.0001137,53.2181,33.7676,104.6291,255.4827,2.4779e-05,1.07e-06,0.0,0 STARLINK-5163,1 54054U 22136D   23111.15119154  .00000107  00000-0  24779-4 0  9998,2 54054  53.2181  33.7676 0001137 104.6291 255.4827 15.08836025 28277,6917.893,95.438,540.544,538.971,0.0
54054.0,STARLINK-5163,PAYLOAD,2023-04-21 11:34:38,15.08838986,0.0001102,53.2183,32.2806,104.8959,255.2156,0.00014936,2.09e-05,0.0,0 STARLINK-5163,1 54054U 22136D   23111.48239147  .00002090  00000-0  14936-3 0  9995,2 54054  53.2183  32.2806 0001102 104.8959 255.2156 15.08838986 27846,6917.883,95.438,540.511,538.986,0.0
54054.0,STARLINK-5163,PAYLOAD,2023-04-21 17:56:11,15.08840766,0.0001122,53.2183,31.0916,109.9512,250.1601,0.00023119,3.394e-05,0.0,0 STARLINK-5163,1 54054U 22136D   23111.74735267  .00003394  00000-0  23119-3 0  9999,2 54054  53.2183  31.0916 0001122 109.9512 250.1601 15.08840766 27880,6917.878,95.438,540.519,538.967,0.0
54054.0,STARLINK-5163,PAYLOAD,2023-04-22 03:28:29,15.08857725,0.0001336,53.2183,29.3084,117.6336,242.4792,0.00060117,9.297e-05,0.0,0 STARLINK-5163,1 54054U 22136D   23112.14478719  .00009297  00000-0  60117-3 0  9997,2 54054  53.2183  29.3084 0001336 117.6336 242.4792 15.08857725 28422,6917.826,95.436,540.615,538.767,0.0
54054.0,STARLINK-5163,PAYLOAD,2023-04-22 17:46:57,15.08854879,0.0001411,53.218,26.634,112.4606,247.6535,0.00027336,4.067e-05,0.0,0 STARLINK-5163,1 54054U 22136D   23112.74094368  .00004067  00000-0  27336-3 0  9993,2 54054  53.2180  26.6340 0001411 112.4606 247.6535 15.08854879 28037,6917.835,95.437,540.676,538.724,0.0
54054.0,STARLINK-5163,PAYLOAD,2023-04-23 03:19:16,15.0885055,0.000142,53.2183,24.8482,111.4063,248.7081,0.00015622,2.2e-05,0.0,0 STARLINK-5163,1 54054U 22136D   23113.13838293  .00002200  00000-0  15622-3 0  9992,2 54054  53.2183  24.8482 0001420 111.4063 248.7081 15.08850550 28572,6917.848,95.437,540.695,538.731,0.0
54054.0,STARLINK-5163,PAYLOAD,2023-04-24 03:10:02,15.08863947,0.0001878,53.2189,20.3844,78.0265,282.0938,0.00024806,3.665e-05,0.0,0 STARLINK-5163,1 54054U 22136D   23114.13197875  .00003665  00000-0  24806-3 0  9997,2 54054  53.2189  20.3844 0001878  78.0265 282.0938 15.08863947 28240,6917.807,95.436,540.971,538.373,0.0
54054.0,STARLINK-5163,PAYLOAD,2023-04-24 23:50:01,15.08881749,0.000137,53.2178,16.5185,106.5824,253.5319,0.00047613,7.306e-05,0.0,0 STARLINK-5163,1 54054U 22136D   23114.99307400  .00007306  00000-0  47613-3 0  9995,2 54054  53.2178  16.5185 0001370 106.5824 253.5319 15.08881749 28851,6917.753,95.435,540.566,538.67,0.0
54054.0,STARLINK-5163,PAYLOAD,2023-04-26 06:02:23,15.08810569,0.0001736,53.2184,10.872,121.4008,238.7154,-0.00053494,-8.785e-05,0.0,0 STARLINK-5163,1 54054U 22136D   23116.25166488 -.00008785  00000-0 -53494-3 0  9993,2 54054  53.2184  10.8720 0001736 121.4008 238.7154 15.08810569 28568,6917.97,95.439,541.036,538.634,0.0
54054.0,STARLINK-5163,PAYLOAD,2023-04-26 23:31:39,15.08828142,0.0001553,53.2175,7.6027,107.7914,252.3248,0.00079511,0.00012385,0.0,0 STARLINK-5163,1 54054U 22136D   23116.98032401  .00012385  00000-0  79511-3 0  9997,2 54054  53.2175   7.6027 0001553 107.7914 252.3248 15.08828142 29150,6917.917,95.438,540.856,538.707,0.0
54054.0,STARLINK-5163,PAYLOAD,2023-04-27 04:17:49,15.08833082,0.0001841,53.2167,6.7073,93.7642,266.3561,0.00068142,0.00010571,0.0,0 STARLINK-5163,1 54054U 22136D   23117.17904054  .00010571  00000-0  68142-3 0  9994,2 54054  53.2167   6.7073 0001841  93.7642 266.3561 15.08833082 28706,6917.902,95.438,541.04,538.493,0.0
54054.0,STARLINK-5163,PAYLOAD,2023-04-27 23:22:27,15.08831205,0.0001956,53.2179,3.1384,104.8727,255.2482,0.00092759,0.00014502,0.0,0 STARLINK-5163,1 54054U 22136D   23117.97392366  .00014502  00000-0  92759-3 0  9998,2 54054  53.2179   3.1384 0001956 104.8727 255.2482 15.08831205 29301,6917.907,95.438,541.125,538.419,0.0
54054.0,STARLINK-5163,PAYLOAD,2023-04-28 08:54:45,15.08834841,0.0001481,53.217,1.3579,107.8519,252.2635,0.00039031,5.928e-05,0.0,0 STARLINK-5163,1 54054U 22136D   23118.37136133  .00005928  00000-0  39031-3 0  9997,2 54054  53.2170   1.3579 0001481 107.8519 252.2635 15.08834841 28881,6917.896,95.438,540.786,538.737,0.0
54054.0,STARLINK-5163,PAYLOAD,2023-04-28 18:27:04,15.08829628,0.0001892,53.2163,359.5712,91.6993,268.4216,-0.00029387,-4.961e-05,0.0,0 STARLINK-5163,1 54054U 22136D   23118.76880412 -.00004961  00000-0 -29387-3 0  9997,2 54054  53.2163 359.5712 0001892  91.6993 268.4216 15.08829628 29424,6917.912,95.438,541.086,538.468,0.0
54054.0,STARLINK-5163,PAYLOAD,2023-04-29 00:48:37,15.08835661,0.000181,53.2164,358.3821,97.2042,262.9156,-0.0001525,-2.714e-05,0.0,0 STARLINK-5163,1 54054U 22136D   23119.03376158 -.00002714  00000-0 -15250-3 0  9993,2 54054  53.2164 358.3821 0001810  97.2042 262.9156 15.08835661 28986,6917.894,95.438,541.011,538.507,0.0
54054.0,STARLINK-5163,PAYLOAD,2023-04-29 18:17:50,15.08866179,0.0001654,53.2161,355.1112,120.9664,239.1491,-0.00091747,-0.0001487,0.0,0 STARLINK-5163,1 54054U 22136D   23119.76239007 -.00014870  00000-0 -91747-3 0  9995,2 54054  53.2161 355.1112 0001654 120.9664 239.1491 15.08866179 29573,6917.8,95.436,540.81,538.521,0.0
54054.0,STARLINK-5163,PAYLOAD,2023-04-30 00:39:24,15.08838063,0.0001609,53.2161,353.9217,105.9699,254.147,0.0002993,4.478e-05,0.0,0 STARLINK-5163,1 54054U 22136D   23120.02736551  .00004478  00000-0  29930-3 0  9998,2 54054  53.2161 353.9217 0001609 105.9699 254.1470 15.08838063 29616,6917.886,95.438,540.864,538.638,0.0
54054.0,STARLINK-5163,PAYLOAD,2023-04-30 22:54:47,15.08861233,0.0001521,53.2161,349.7582,107.3071,252.8087,0.00069675,0.00010825,0.0,0 STARLINK-5163,1 54054U 22136D   23120.95471935  .00010825  00000-0  69675-3 0  9995,2 54054  53.2161 349.7582 0001521 107.3071 252.8087 15.08861233 29756,6917.815,95.436,540.733,538.628,0.0
54054.0,STARLINK-5163,PAYLOAD,2023-05-01 14:48:39,15.08849627,0.0001555,53.2161,346.7849,112.4395,247.6761,0.00019027,2.742e-05,0.0,0 STARLINK-5163,1 54054U 22136D   23121.61711810  .00002742  00000-0  19027-3 0  9993,2 54054  53.2161 346.7849 0001555 112.4395 247.6761 15.08849627 29857,6917.851,95.437,540.792,538.64,0.0
54054.0,STARLINK-5163,PAYLOAD,2023-05-01 21:10:11,15.08850241,0.0001388,53.2161,345.5948,105.8527,254.2618,0.00026343,3.908e-05,0.0,0 STARLINK-5163,1 54054U 22136D   23121.88207866  .00003908  00000-0  26343-3 0  9997,2 54054  53.2161 345.5948 0001388 105.8527 254.2618 15.08850241 29412,6917.849,95.437,540.674,538.754,0.0
54054.0,STARLINK-5163,PAYLOAD,2023-05-02 00:20:57,15.08851153,0.0001387,53.2161,345.0002,104.6514,255.4632,0.00030638,4.593e-05,0.0,0 STARLINK-5163,1 54054U 22136D   23122.01455808  .00004593  00000-0  30638-3 0  9997,2 54054  53.2161 345.0002 0001387 104.6514 255.4632 15.08851153 29434,6917.846,95.437,540.671,538.752,0.0
54054.0,STARLINK-5163,PAYLOAD,2023-05-02 19:25:35,15.08847214,0.0001422,53.2158,341.4312,105.9957,254.1192,0.00028718,4.286e-05,0.0,0 STARLINK-5163,1 54054U 22136D   23122.80943720  .00004286  00000-0  28718-3 0  9994,2 54054  53.2158 341.4312 0001422 105.9957 254.1192 15.08847214 30037,6917.858,95.437,540.707,538.74,0.0
54054.0,STARLINK-5163,PAYLOAD,2023-05-02 21:00:58,15.08848527,0.0001387,53.2158,341.1339,106.8953,253.2191,0.00020268,2.94e-05,0.0,0 STARLINK-5163,1 54054U 22136D   23122.87567618  .00002940  00000-0  20268-3 0  9996,2 54054  53.2158 341.1339 0001387 106.8953 253.2191 15.08848527 29562,6917.854,95.437,540.679,538.76,0.0
54054.0,STARLINK-5163,PAYLOAD,2023-05-03 00:11:44,15.08852333,0.0001397,53.2158,340.5389,105.6957,254.419,0.00021879,3.197e-05,0.0,0 STARLINK-5163,1 54054U 22136D   23123.00815428  .00003197  00000-0  21879-3 0  9991,2 54054  53.2158 340.5389 0001397 105.6957 254.4190 15.08852333 29586,6917.843,95.437,540.674,538.741,0.0
54054.0,STARLINK-5163,PAYLOAD,2023-05-03 19:16:22,15.08839162,0.0001406,53.2159,336.9691,119.5854,240.5278,2.7032e-05,1.42e-06,0.0,0 STARLINK-5163,1 54054U 22136D   23123.80303902  .00000142  00000-0  27032-4 0  9993,2 54054  53.2159 336.9691 0001406 119.5854 240.5278 15.08839162 30189,6917.883,95.438,540.721,538.775,0.0
54054.0,STARLINK-5163,PAYLOAD,2023-05-03 20:51:45,15.08839088,0.000139,53.216,336.6717,119.1964,240.9167,2.0616e-05,4e-07,0.0,0 STARLINK-5163,1 54054U 22136D   23123.86927891  .00000040  00000-0  20616-4 0  9996,2 54054  53.2160 336.6717 0001390 119.1964 240.9167 15.08839088 29712,6917.883,95.438,540.71,538.787,0.0
